{
    "links": {
        "self": "http://www.neowsapp.com/rest/v1/neo/3552693?api_key=iIulBulltgU6a56xZRHN4H3l9WmuAYTsLGpBGhQ2"
    },
    "id": "3552693",
    "neo_reference_id": "3552693",
    "name": "(2010 XR)",
    "designation": "2010 XR",
    "nasa_jpl_url": "http://ssd.jpl.nasa.gov/sbdb.cgi?sstr=3552693",
    "absolute_magnitude_h": 26.9,
    "estimated_diameter": {
        "kilometers": {
            "estimated_diameter_min": 0.0110803882,
            "estimated_diameter_max": 0.0247765013
        },
        "meters": {
            "estimated_diameter_min": 11.0803882126,
            "estimated_diameter_max": 24.7765012606
        },
        "miles": {
            "estimated_diameter_min": 0.0068850319,
            "estimated_diameter_max": 0.0153953994
        },
        "feet": {
            "estimated_diameter_min": 36.3529808636,
            "estimated_diameter_max": 81.2877363957
        }
    },
    "is_potentially_hazardous_asteroid": false,
    "close_approach_data": [
        {
            "close_approach_date": "2010-11-29",
            "close_approach_date_full": "2010-Nov-29 21:10",
            "epoch_date_close_approach": 1291065000000,
            "relative_velocity": {
                "kilometers_per_second": "20.6488513303",
                "kilometers_per_hour": "74335.864789094",
                "miles_per_hour": "46189.4155407568"
            },
            "miss_distance": {
                "astronomical": "0.0036956261",
                "lunar": "1.4375985529",
                "kilometers": "552857.792876407",
                "miles": "343529.9028001366"
            },
            "orbiting_body": "Moon"
        },
        {
            "close_approach_date": "2010-11-29",
            "close_approach_date_full": "2010-Nov-29 21:58",
            "epoch_date_close_approach": 1291067880000,
            "relative_velocity": {
                "kilometers_per_second": "19.6285510367",
                "kilometers_per_hour": "70662.7837321556",
                "miles_per_hour": "43907.1058140164"
            },
            "miss_distance": {
                "astronomical": "0.0012885508",
                "lunar": "0.5012462612",
                "kilometers": "192764.455066796",
                "miles": "119778.2781859448"
            },
            "orbiting_body": "Earth"
        }
    ],
    "orbital_data": {
        "orbit_id": "10",
        "orbit_determination_date": "2017-04-06 08:55:26",
        "first_observation_date": "2010-12-02",
        "last_observation_date": "2010-12-05",
        "data_arc_in_days": 3,
        "observations_used": 14,
        "orbit_uncertainty": "9",
        "minimum_orbit_intersection": ".000184753",
        "jupiter_tisserand_invariant": "3.552",
        "epoch_osculation": "2455534.5",
        "eccentricity": ".6696178978598818",
        "semi_major_axis": "1.968684113268938",
        "inclination": "5.747131770987375",
        "ascending_node_longitude": "247.2243008269392",
        "orbital_period": "1008.93335958772",
        "perihelion_distance": ".6504179957916463",
        "perihelion_argument": "98.79195231425122",
        "aphelion_distance": "3.286950230746229",
        "perihelion_time": "2455484.893795769744",
        "mean_anomaly": "17.70011205714276",
        "mean_motion": ".3568124659364088",
        "equinox": "J2000",
        "orbit_class": {
            "orbit_class_type": "APO",
            "orbit_class_description": "Near-Earth asteroid orbits which cross the Earth’s orbit similar to that of 1862 Apollo",
            "orbit_class_range": "a (semi-major axis) > 1.0 AU; q (perihelion) < 1.017 AU"
        }
    },
    "is_sentry_object": false
}